CCSDS_OMM_VERS = 2.0
CREATION_DATE  = 
ORIGINATOR     = 

OBJECT_NAME    = CYGNUS NG-23
OBJECT_ID      = 2025-208A
CENTER_NAME    = EARTH
REF_FRAME      = TEME
TIME_SYSTEM    = UTC
MEAN_ELEMENT_THEORY = SGP/SGP4

EPOCH          = 2025-12-13T02:54:59.414400
MEAN_MOTION    = 15.49559837
ECCENTRICITY   = .00032382
INCLINATION    = 51.6303
RA_OF_ASC_NODE = 140.5889
ARG_OF_PERICENTER = 241.9684
MEAN_ANOMALY   = 118.0978

EPHEMERIS_TYPE = 0
CLASSIFICATION_TYPE = U
NORAD_CAT_ID   = 65616
ELEMENT_SET_NO = 999
REV_AT_EPOCH   = 22
BSTAR          = .29450217E-3
MEAN_MOTION_DOT = .1613E-3
MEAN_MOTION_DDOT = 0

CCSDS_OMM_VERS = 2.0
CREATION_DATE  = 
ORIGINATOR     = 

OBJECT_NAME    = DRAGONFLY
OBJECT_ID      = 1998-067XH
CENTER_NAME    = EARTH
REF_FRAME      = TEME
TIME_SYSTEM    = UTC
MEAN_ELEMENT_THEORY = SGP/SGP4

EPOCH          = 2025-12-12T16:11:54.021120
MEAN_MOTION    = 15.71879709
ECCENTRICITY   = .0006787
INCLINATION    = 51.6248
RA_OF_ASC_NODE = 136.0967
ARG_OF_PERICENTER = 276.9077
MEAN_ANOMALY   = 83.1148

EPHEMERIS_TYPE = 0
CLASSIFICATION_TYPE = U
NORAD_CAT_ID   = 65729
ELEMENT_SET_NO = 999
REV_AT_EPOCH   = 1315
BSTAR          = .1612676E-2
MEAN_MOTION_DOT = .219639E-2
MEAN_MOTION_DDOT = 0

CCSDS_OMM_VERS = 2.0
CREATION_DATE  = 
ORIGINATOR     = 

OBJECT_NAME    = 1998-067XK
OBJECT_ID      = 1998-067XK
CENTER_NAME    = EARTH
REF_FRAME      = TEME
TIME_SYSTEM    = UTC
MEAN_ELEMENT_THEORY = SGP/SGP4

EPOCH          = 2025-12-13T02:48:43.499232
MEAN_MOTION    = 15.65831493
ECCENTRICITY   = .00050246
INCLINATION    = 51.6274
RA_OF_ASC_NODE = 135.3174
ARG_OF_PERICENTER = 248.4122
MEAN_ANOMALY   = 111.6339

EPHEMERIS_TYPE = 0
CLASSIFICATION_TYPE = U
NORAD_CAT_ID   = 65731
ELEMENT_SET_NO = 999
REV_AT_EPOCH   = 1320
BSTAR          = .12217358E-2
MEAN_MOTION_DOT = .128039E-2
MEAN_MOTION_DDOT = 0

CCSDS_OMM_VERS = 2.0
CREATION_DATE  = 
ORIGINATOR     = 

OBJECT_NAME    = RSP-03
OBJECT_ID      = 1998-067XL
CENTER_NAME    = EARTH
REF_FRAME      = TEME
TIME_SYSTEM    = UTC
MEAN_ELEMENT_THEORY = SGP/SGP4

EPOCH          = 2025-12-12T19:16:04.645920
MEAN_MOTION    = 15.68628297
ECCENTRICITY   = .00057622
INCLINATION    = 51.6253
RA_OF_ASC_NODE = 136.2083
ARG_OF_PERICENTER = 249.7501
MEAN_ANOMALY   = 110.2876

EPHEMERIS_TYPE = 0
CLASSIFICATION_TYPE = U
NORAD_CAT_ID   = 65732
ELEMENT_SET_NO = 999
REV_AT_EPOCH   = 1317
BSTAR          = .13717805E-2
MEAN_MOTION_DOT = .161855E-2
MEAN_MOTION_DDOT = 0

CCSDS_OMM_VERS = 2.0
CREATION_DATE  = 
ORIGINATOR     = 

OBJECT_NAME    = GHS-01
OBJECT_ID      = 1998-067XM
CENTER_NAME    = EARTH
REF_FRAME      = TEME
TIME_SYSTEM    = UTC
MEAN_ELEMENT_THEORY = SGP/SGP4

EPOCH          = 2025-12-12T16:33:54.337536
MEAN_MOTION    = 15.74787819
ECCENTRICITY   = .00071608
INCLINATION    = 51.6272
RA_OF_ASC_NODE = 135.4559
ARG_OF_PERICENTER = 280.4692
MEAN_ANOMALY   = 79.5500

EPHEMERIS_TYPE = 0
CLASSIFICATION_TYPE = U
NORAD_CAT_ID   = 65733
ELEMENT_SET_NO = 999
REV_AT_EPOCH   = 1317
BSTAR          = .17046622E-2
MEAN_MOTION_DOT = .264493E-2
MEAN_MOTION_DDOT = 0

CCSDS_OMM_VERS = 2.0
CREATION_DATE  = 
ORIGINATOR     = 

OBJECT_NAME    = YOTSUBA-KULOVER
OBJECT_ID      = 1998-067XN
CENTER_NAME    = EARTH
REF_FRAME      = TEME
TIME_SYSTEM    = UTC
MEAN_ELEMENT_THEORY = SGP/SGP4

EPOCH          = 2025-12-12T17:06:14.736384
MEAN_MOTION    = 15.59447843
ECCENTRICITY   = .00014047
INCLINATION    = 51.6283
RA_OF_ASC_NODE = 140.1142
ARG_OF_PERICENTER = 246.8378
MEAN_ANOMALY   = 113.2466

EPHEMERIS_TYPE = 0
CLASSIFICATION_TYPE = U
NORAD_CAT_ID   = 65941
ELEMENT_SET_NO = 999
REV_AT_EPOCH   = 985
BSTAR          = .10939393E-2
MEAN_MOTION_DOT = .8876E-3
MEAN_MOTION_DDOT = 0

CCSDS_OMM_VERS = 2.0
CREATION_DATE  = 
ORIGINATOR     = 

OBJECT_NAME    = BOTAN
OBJECT_ID      = 1998-067XP
CENTER_NAME    = EARTH
REF_FRAME      = TEME
TIME_SYSTEM    = UTC
MEAN_ELEMENT_THEORY = SGP/SGP4

EPOCH          = 2025-12-12T20:18:31.406976
MEAN_MOTION    = 15.62906067
ECCENTRICITY   = .00031064
INCLINATION    = 51.6286
RA_OF_ASC_NODE = 138.7562
ARG_OF_PERICENTER = 238.0921
MEAN_ANOMALY   = 121.9771

EPHEMERIS_TYPE = 0
CLASSIFICATION_TYPE = U
NORAD_CAT_ID   = 65942
ELEMENT_SET_NO = 999
REV_AT_EPOCH   = 988
BSTAR          = .14970071E-2
MEAN_MOTION_DOT = .139962E-2
MEAN_MOTION_DDOT = 0

CCSDS_OMM_VERS = 2.0
CREATION_DATE  = 
ORIGINATOR     = 

OBJECT_NAME    = E-KAGAKU-1
OBJECT_ID      = 1998-067XQ
CENTER_NAME    = EARTH
REF_FRAME      = TEME
TIME_SYSTEM    = UTC
MEAN_ELEMENT_THEORY = SGP/SGP4

EPOCH          = 2025-12-10T06:39:08.237952
MEAN_MOTION    = 15.59004320
ECCENTRICITY   = .00052507
INCLINATION    = 51.6298
RA_OF_ASC_NODE = 152.3458
ARG_OF_PERICENTER = 191.2269
MEAN_ANOMALY   = 168.8608

EPHEMERIS_TYPE = 0
CLASSIFICATION_TYPE = U
NORAD_CAT_ID   = 65943
ELEMENT_SET_NO = 999
REV_AT_EPOCH   = 947
BSTAR          = .12588803E-2
MEAN_MOTION_DOT = .100705E-2
MEAN_MOTION_DDOT = 0

CCSDS_OMM_VERS = 2.0
CREATION_DATE  = 
ORIGINATOR     = 

OBJECT_NAME    = HRC MONOBLOCK CAMERA
OBJECT_ID      = 1998-067XR
CENTER_NAME    = EARTH
REF_FRAME      = TEME
TIME_SYSTEM    = UTC
MEAN_ELEMENT_THEORY = SGP/SGP4

EPOCH          = 2025-12-13T07:03:37.221984
MEAN_MOTION    = 15.54192892
ECCENTRICITY   = .00031753
INCLINATION    = 51.6292
RA_OF_ASC_NODE = 138.7434
ARG_OF_PERICENTER = 186.7911
MEAN_ANOMALY   = 173.3037

EPHEMERIS_TYPE = 0
CLASSIFICATION_TYPE = U
NORAD_CAT_ID   = 66052
ELEMENT_SET_NO = 999
REV_AT_EPOCH   = 892
BSTAR          = .87487655E-3
MEAN_MOTION_DOT = .58002E-3
MEAN_MOTION_DDOT = 0

CCSDS_OMM_VERS = 2.0
CREATION_DATE  = 
ORIGINATOR     = 

OBJECT_NAME    = HTV-X1
OBJECT_ID      = 2025-241A
CENTER_NAME    = EARTH
REF_FRAME      = TEME
TIME_SYSTEM    = UTC
MEAN_ELEMENT_THEORY = SGP/SGP4

EPOCH          = 2025-12-13T02:54:59.414400
MEAN_MOTION    = 15.49559837
ECCENTRICITY   = .00032382
INCLINATION    = 51.6303
RA_OF_ASC_NODE = 140.5889
ARG_OF_PERICENTER = 241.9684
MEAN_ANOMALY   = 118.0978

EPHEMERIS_TYPE = 0
CLASSIFICATION_TYPE = U
NORAD_CAT_ID   = 66174
ELEMENT_SET_NO = 999
REV_AT_EPOCH   = 51
BSTAR          = .29450217E-3
MEAN_MOTION_DOT = .1613E-3
MEAN_MOTION_DDOT = 0

CCSDS_OMM_VERS = 2.0
CREATION_DATE  = 
ORIGINATOR     = 

OBJECT_NAME    = SZ-21 MODULE
OBJECT_ID      = 2025-246C
CENTER_NAME    = EARTH
REF_FRAME      = TEME
TIME_SYSTEM    = UTC
MEAN_ELEMENT_THEORY = SGP/SGP4

EPOCH          = 2025-12-13T05:48:56.217312
MEAN_MOTION    = 15.62521016
ECCENTRICITY   = .00062862
INCLINATION    = 41.4775
RA_OF_ASC_NODE = 12.9802
ARG_OF_PERICENTER = 263.0797
MEAN_ANOMALY   = 96.9328

EPHEMERIS_TYPE = 0
CLASSIFICATION_TYPE = U
NORAD_CAT_ID   = 66515
ELEMENT_SET_NO = 999
REV_AT_EPOCH   = 452
BSTAR          = .43386364E-3
MEAN_MOTION_DOT = .39667E-3
MEAN_MOTION_DDOT = 0

CCSDS_OMM_VERS = 2.0
CREATION_DATE  = 
ORIGINATOR     = 

OBJECT_NAME    = SHENZHOU-22
OBJECT_ID      = 2025-272A
CENTER_NAME    = EARTH
REF_FRAME      = TEME
TIME_SYSTEM    = UTC
MEAN_ELEMENT_THEORY = SGP/SGP4

EPOCH          = 2025-12-13T06:59:15.159552
MEAN_MOTION    = 15.59202655
ECCENTRICITY   = .00082357
INCLINATION    = 41.4684
RA_OF_ASC_NODE = 13.3607
ARG_OF_PERICENTER = 35.4193
MEAN_ANOMALY   = 324.7191

EPHEMERIS_TYPE = 0
CLASSIFICATION_TYPE = U
NORAD_CAT_ID   = 66645
ELEMENT_SET_NO = 999
REV_AT_EPOCH   = 26357
BSTAR          = .37863929E-3
MEAN_MOTION_DOT = .30374E-3
MEAN_MOTION_DDOT = 0

